HULIANWANG DIGUI-108    
1 66918U 25285D   26193.78708245 -.00000107  00000+0  36462-4 0  9997
2 66918  50.0057  54.1833 0000988  28.1620 331.9306 13.29325823 29461
HULIANWANG DIGUI-109    
1 66919U 25285E   26193.77859575 -.00000110  00000+0  29416-4 0  9995
2 66919  50.0081  54.1833 0000928  36.8906 323.2030 13.29316511 29479
HULIANWANG DIGUI-110    
1 66920U 25285F   26193.77041737 -.00000107  00000+0  35875-4 0  9992
2 66920  50.0114  54.1970 0000930  29.9000 330.1925 13.29326330 29460
HULIANWANG DIGUI-111    
1 66921U 25285G   26193.01030322 -.00000108  00000+0  33809-4 0  9994
2 66921  50.0129  56.8790 0000936  27.1999 332.8922 13.29325814 29360
HULIANWANG DIGUI-112    
1 66922U 25285H   26193.00190808 -.00000110  00000+0  30495-4 0  9991
2 66922  50.0091  56.7722 0000986  24.2392 335.8527 13.29325646 29360
HULIANWANG DIGUI-113    
1 66923U 25285J   26192.99365483 -.00000105  00000+0  41059-4 0  9994
2 66923  50.0100  56.7458 0000990  23.8366 336.2552 13.29324096 29360
HULIANWANG DIGUI-114    
1 66953U 25287A   26193.75265425  .00000019  00000+0  90969-5 0  9997
2 66953  86.4931 273.7285 0002277 100.1679 259.9712 13.24413282 28722
HULIANWANG DIGUI-115    
1 66954U 25287B   26193.74477112  .00000022  00000+0  17217-4 0  9993
2 66954  86.4947 273.7599 0002559  98.8526 261.2897 13.24400772 28725
HULIANWANG DIGUI-116    
1 66955U 25287C   26193.73754992  .00000028  00000+0  32081-4 0  9999
2 66955  86.4887 273.6244 0002387  98.1752 261.9653 13.24412954 28720
HULIANWANG DIGUI-117    
1 66956U 25287D   26193.73002701  .00000040  00000+0  59274-4 0  9991
2 66956  86.4949 273.7540 0001133  61.3173 298.8075 13.24412631 28726
HULIANWANG DIGUI-118    
1 66957U 25287E   26193.72246045  .00000049  00000+0  81129-4 0  9995
2 66957  86.4924 273.6981 0002334 100.3098 259.8300 13.24412063 28729
HULIANWANG DIGUI-119    
1 67059U 25295A   26193.64233742 -.00000088  00000+0  76740-4 0  9996
2 67059  50.0040 294.4884 0001087 179.8116 180.2757 13.29324031 28880
HULIANWANG DIGUI-120    
1 67060U 25295B   26193.70082010 -.00000091  00000+0  72035-4 0  9992
2 67060  50.0052 294.1410 0001080 182.7484 177.3382 13.29324453 28891
HULIANWANG DIGUI-121    
1 67061U 25295C   26193.63399228 -.00000088  00000+0  78405-4 0  9990
2 67061  50.0013 294.3808 0000924 181.9463 178.1406 13.29325709 28886
HULIANWANG DIGUI-122    
1 67062U 25295D   26193.61720839 -.00000092  00000+0  68670-4 0  9993
2 67062  50.0045 294.3574 0001133 179.9441 180.1431 13.29324253 28882
HULIANWANG DIGUI-123    
1 67063U 25295E   26193.53373169 -.00000090  00000+0  74113-4 0  9992
2 67063  50.0046 294.5874 0001040 179.7632 180.3241 13.29323876 28876
