{"fetched_at":"2026-07-13T05:28:12.237Z","source":"https://celestrak.org/NORAD/elements/gp.php?NAME=HULIANWANG&FORMAT=JSON","constellation":"guowang","records":[{"OBJECT_NAME":"HULIANWANG DIGUI-108","OBJECT_ID":"2025-285D","EPOCH":"2026-07-12T18:53:23.923680","CLASSIFICATION_TYPE":"U","MEAN_MOTION":13.29325823,"ECCENTRICITY":0.0000988,"INCLINATION":50.0057,"RA_OF_ASC_NODE":54.1833,"ARG_OF_PERICENTER":28.162,"MEAN_ANOMALY":331.9306,"EPHEMERIS_TYPE":0,"NORAD_CAT_ID":66918,"ELEMENT_SET_NO":999,"REV_AT_EPOCH":2946,"BSTAR":0.000036462,"MEAN_MOTION_DOT":-0.00000107,"MEAN_MOTION_DDOT":0},{"OBJECT_NAME":"HULIANWANG DIGUI-109","OBJECT_ID":"2025-285E","EPOCH":"2026-07-12T18:41:10.672800","CLASSIFICATION_TYPE":"U","MEAN_MOTION":13.29316511,"ECCENTRICITY":0.0000928,"INCLINATION":50.0081,"RA_OF_ASC_NODE":54.1833,"ARG_OF_PERICENTER":36.8906,"MEAN_ANOMALY":323.203,"EPHEMERIS_TYPE":0,"NORAD_CAT_ID":66919,"ELEMENT_SET_NO":999,"REV_AT_EPOCH":2947,"BSTAR":0.000029416,"MEAN_MOTION_DOT":-0.0000011,"MEAN_MOTION_DDOT":0},{"OBJECT_NAME":"HULIANWANG DIGUI-110","OBJECT_ID":"2025-285F","EPOCH":"2026-07-12T18:29:24.060768","CLASSIFICATION_TYPE":"U","MEAN_MOTION":13.2932633,"ECCENTRICITY":0.000093,"INCLINATION":50.0114,"RA_OF_ASC_NODE":54.197,"ARG_OF_PERICENTER":29.9,"MEAN_ANOMALY":330.1925,"EPHEMERIS_TYPE":0,"NORAD_CAT_ID":66920,"ELEMENT_SET_NO":999,"REV_AT_EPOCH":2946,"BSTAR":0.000035875,"MEAN_MOTION_DOT":-0.00000107,"MEAN_MOTION_DDOT":0},{"OBJECT_NAME":"HULIANWANG DIGUI-111","OBJECT_ID":"2025-285G","EPOCH":"2026-07-12T00:14:50.198208","CLASSIFICATION_TYPE":"U","MEAN_MOTION":13.29325814,"ECCENTRICITY":0.0000936,"INCLINATION":50.0129,"RA_OF_ASC_NODE":56.879,"ARG_OF_PERICENTER":27.1999,"MEAN_ANOMALY":332.8922,"EPHEMERIS_TYPE":0,"NORAD_CAT_ID":66921,"ELEMENT_SET_NO":999,"REV_AT_EPOCH":2936,"BSTAR":0.000033809,"MEAN_MOTION_DOT":-0.00000108,"MEAN_MOTION_DDOT":0},{"OBJECT_NAME":"HULIANWANG DIGUI-112","OBJECT_ID":"2025-285H","EPOCH":"2026-07-12T00:02:44.858112","CLASSIFICATION_TYPE":"U","MEAN_MOTION":13.29325646,"ECCENTRICITY":0.0000986,"INCLINATION":50.0091,"RA_OF_ASC_NODE":56.7722,"ARG_OF_PERICENTER":24.2392,"MEAN_ANOMALY":335.8527,"EPHEMERIS_TYPE":0,"NORAD_CAT_ID":66922,"ELEMENT_SET_NO":999,"REV_AT_EPOCH":2936,"BSTAR":0.000030495,"MEAN_MOTION_DOT":-0.0000011,"MEAN_MOTION_DDOT":0},{"OBJECT_NAME":"HULIANWANG DIGUI-113","OBJECT_ID":"2025-285J","EPOCH":"2026-07-11T23:50:51.777312","CLASSIFICATION_TYPE":"U","MEAN_MOTION":13.29324096,"ECCENTRICITY":0.00009901,"INCLINATION":50.01,"RA_OF_ASC_NODE":56.7458,"ARG_OF_PERICENTER":23.8366,"MEAN_ANOMALY":336.2552,"EPHEMERIS_TYPE":0,"NORAD_CAT_ID":66923,"ELEMENT_SET_NO":999,"REV_AT_EPOCH":2936,"BSTAR":0.000041059436,"MEAN_MOTION_DOT":-0.00000105,"MEAN_MOTION_DDOT":0},{"OBJECT_NAME":"HULIANWANG DIGUI-114","OBJECT_ID":"2025-287A","EPOCH":"2026-07-12T18:03:49.327200","CLASSIFICATION_TYPE":"U","MEAN_MOTION":13.24413282,"ECCENTRICITY":0.0002277,"INCLINATION":86.4931,"RA_OF_ASC_NODE":273.7285,"ARG_OF_PERICENTER":100.1679,"MEAN_ANOMALY":259.9712,"EPHEMERIS_TYPE":0,"NORAD_CAT_ID":66953,"ELEMENT_SET_NO":999,"REV_AT_EPOCH":2872,"BSTAR":0.0000090969,"MEAN_MOTION_DOT":1.9e-7,"MEAN_MOTION_DDOT":0},{"OBJECT_NAME":"HULIANWANG DIGUI-115","OBJECT_ID":"2025-287B","EPOCH":"2026-07-12T17:52:28.224768","CLASSIFICATION_TYPE":"U","MEAN_MOTION":13.24400772,"ECCENTRICITY":0.0002559,"INCLINATION":86.4947,"RA_OF_ASC_NODE":273.7599,"ARG_OF_PERICENTER":98.8526,"MEAN_ANOMALY":261.2897,"EPHEMERIS_TYPE":0,"NORAD_CAT_ID":66954,"ELEMENT_SET_NO":999,"REV_AT_EPOCH":2872,"BSTAR":0.000017217,"MEAN_MOTION_DOT":2.2e-7,"MEAN_MOTION_DDOT":0},{"OBJECT_NAME":"HULIANWANG DIGUI-116","OBJECT_ID":"2025-287C","EPOCH":"2026-07-12T17:42:04.313088","CLASSIFICATION_TYPE":"U","MEAN_MOTION":13.24412954,"ECCENTRICITY":0.0002387,"INCLINATION":86.4887,"RA_OF_ASC_NODE":273.6244,"ARG_OF_PERICENTER":98.1752,"MEAN_ANOMALY":261.9653,"EPHEMERIS_TYPE":0,"NORAD_CAT_ID":66955,"ELEMENT_SET_NO":999,"REV_AT_EPOCH":2872,"BSTAR":0.000032081,"MEAN_MOTION_DOT":2.8e-7,"MEAN_MOTION_DDOT":0},{"OBJECT_NAME":"HULIANWANG DIGUI-117","OBJECT_ID":"2025-287D","EPOCH":"2026-07-12T17:31:14.333664","CLASSIFICATION_TYPE":"U","MEAN_MOTION":13.24412631,"ECCENTRICITY":0.0001133,"INCLINATION":86.4949,"RA_OF_ASC_NODE":273.754,"ARG_OF_PERICENTER":61.3173,"MEAN_ANOMALY":298.8075,"EPHEMERIS_TYPE":0,"NORAD_CAT_ID":66956,"ELEMENT_SET_NO":999,"REV_AT_EPOCH":2872,"BSTAR":0.000059274,"MEAN_MOTION_DOT":4e-7,"MEAN_MOTION_DDOT":0},{"OBJECT_NAME":"HULIANWANG DIGUI-118","OBJECT_ID":"2025-287E","EPOCH":"2026-07-12T17:20:20.582880","CLASSIFICATION_TYPE":"U","MEAN_MOTION":13.24412063,"ECCENTRICITY":0.0002334,"INCLINATION":86.4924,"RA_OF_ASC_NODE":273.6981,"ARG_OF_PERICENTER":100.3098,"MEAN_ANOMALY":259.83,"EPHEMERIS_TYPE":0,"NORAD_CAT_ID":66957,"ELEMENT_SET_NO":999,"REV_AT_EPOCH":2872,"BSTAR":0.000081129,"MEAN_MOTION_DOT":4.9e-7,"MEAN_MOTION_DDOT":0},{"OBJECT_NAME":"HULIANWANG DIGUI-119","OBJECT_ID":"2025-295A","EPOCH":"2026-07-12T15:24:57.953088","CLASSIFICATION_TYPE":"U","MEAN_MOTION":13.29324031,"ECCENTRICITY":0.0001087,"INCLINATION":50.004,"RA_OF_ASC_NODE":294.4884,"ARG_OF_PERICENTER":179.8116,"MEAN_ANOMALY":180.2757,"EPHEMERIS_TYPE":0,"NORAD_CAT_ID":67059,"ELEMENT_SET_NO":999,"REV_AT_EPOCH":2888,"BSTAR":0.00007674,"MEAN_MOTION_DOT":-8.8e-7,"MEAN_MOTION_DDOT":0},{"OBJECT_NAME":"HULIANWANG DIGUI-120","OBJECT_ID":"2025-295B","EPOCH":"2026-07-12T16:49:10.856640","CLASSIFICATION_TYPE":"U","MEAN_MOTION":13.29324453,"ECCENTRICITY":0.000108,"INCLINATION":50.0052,"RA_OF_ASC_NODE":294.141,"ARG_OF_PERICENTER":182.7484,"MEAN_ANOMALY":177.3382,"EPHEMERIS_TYPE":0,"NORAD_CAT_ID":67060,"ELEMENT_SET_NO":999,"REV_AT_EPOCH":2889,"BSTAR":0.000072035,"MEAN_MOTION_DOT":-9.1e-7,"MEAN_MOTION_DDOT":0},{"OBJECT_NAME":"HULIANWANG DIGUI-121","OBJECT_ID":"2025-295C","EPOCH":"2026-07-12T15:12:56.932992","CLASSIFICATION_TYPE":"U","MEAN_MOTION":13.29325709,"ECCENTRICITY":0.0000924,"INCLINATION":50.0013,"RA_OF_ASC_NODE":294.3808,"ARG_OF_PERICENTER":181.9463,"MEAN_ANOMALY":178.1406,"EPHEMERIS_TYPE":0,"NORAD_CAT_ID":67061,"ELEMENT_SET_NO":999,"REV_AT_EPOCH":2888,"BSTAR":0.000078405,"MEAN_MOTION_DOT":-8.8e-7,"MEAN_MOTION_DDOT":0},{"OBJECT_NAME":"HULIANWANG DIGUI-122","OBJECT_ID":"2025-295D","EPOCH":"2026-07-12T14:48:46.804896","CLASSIFICATION_TYPE":"U","MEAN_MOTION":13.29324253,"ECCENTRICITY":0.0001133,"INCLINATION":50.0045,"RA_OF_ASC_NODE":294.3574,"ARG_OF_PERICENTER":179.9441,"MEAN_ANOMALY":180.1431,"EPHEMERIS_TYPE":0,"NORAD_CAT_ID":67062,"ELEMENT_SET_NO":999,"REV_AT_EPOCH":2888,"BSTAR":0.00006867,"MEAN_MOTION_DOT":-9.2e-7,"MEAN_MOTION_DDOT":0},{"OBJECT_NAME":"HULIANWANG DIGUI-123","OBJECT_ID":"2025-295E","EPOCH":"2026-07-12T12:48:34.418016","CLASSIFICATION_TYPE":"U","MEAN_MOTION":13.29323876,"ECCENTRICITY":0.00010403,"INCLINATION":50.0046,"RA_OF_ASC_NODE":294.5874,"ARG_OF_PERICENTER":179.7632,"MEAN_ANOMALY":180.3241,"EPHEMERIS_TYPE":0,"NORAD_CAT_ID":67063,"ELEMENT_SET_NO":999,"REV_AT_EPOCH":2887,"BSTAR":0.000074112904,"MEAN_MOTION_DOT":-9e-7,"MEAN_MOTION_DDOT":0}]}
